<?xml version="1.0" encoding="UTF-8" standalone="no" ?>
<gpx creator="QMapShack 1.19.0 http://www.qlandkarte.org/" version="1.1" xmlns="http://www.topografix.com/GPX/1/1" xmlns:gpxdata="http://www.cluetrust.com/XML/GPXDATA/1/0" xmlns:gpxtpx="http://www.garmin.com/xmlschemas/TrackPointExtension/v1" xmlns:gpxx="http://www.garmin.com/xmlschemas/GpxExtensions/v3" xmlns:ql="http://www.qlandkarte.org/xmlschemas/v1.1" xmlns:rmc="urn:net:trekbuddy:1.0:nmea:rmc" xmlns:tp1="http://www.garmin.com/xmlschemas/TrackPointExtension/v1" xmlns:wptx1="http://www.garmin.com/xmlschemas/WaypointExtension/v1" xmlns:xsi="http://www.w3.org/2001/XMLSchema-instance" xsi:schemaLocation="http://www.topografix.com/GPX/1/1 http://www.topografix.com/GPX/1/1/gpx.xsd http://www.garmin.com/xmlschemas/GpxExtensions/v3 http://www.garmin.com/xmlschemas/GpxExtensionsv3.xsd http://www.garmin.com/xmlschemas/TrackPointExtension/v1 http://www.garmin.com/xmlschemas/TrackPointExtensionv1.xsd http://www.garmin.com/xmlschemas/WaypointExtension/v1 http://www.garmin.com/xmlschemas/WaypointExtensionv1.xsd http://www.qlandkarte.org/xmlschemas/v1.1 http://www.qlandkarte.org/xmlschemas/v1.1/ql-extensions.xsd http://www.cluetrust.com/XML/GPXDATA/1/0 http://www.cluetrust.com/Schemas/gpxdata10.xsd">
 <metadata>
  <name>Тест мс</name>
  <time>2026-02-18T08:16:34.246Z</time>
 </metadata>
 <wpt lat="54.79584263" lon="83.12789507">
  <time>2026-02-18T08:20:46.286Z</time>
  <name>Окурок около свинарника</name>
  <desc>Барышевский сельсовет, Новосибирский район, Новосибирская область</desc>
  <type>0</type>
  <extensions>
   <ql:key>bf623bd86cbb8abbe8aa20ddfccc1def</ql:key>
   <ql:flags>6</ql:flags>
   <ql:bubble width="300" xoff="-320" yoff="-150"/>
   <ql:history>
    <ql:event>
     <ql:icon>://icons/48x48/Start.png</ql:icon>
     <ql:time>2026-02-18T08:29:35.955Z</ql:time>
     <ql:comment>Initial version.</ql:comment>
    </ql:event>
    <ql:event>
     <ql:icon>://icons/48x48/EditText.png</ql:icon>
     <ql:time>2026-02-18T09:34:37.361Z</ql:time>
     <ql:comment>Changed name</ql:comment>
    </ql:event>
   </ql:history>
   <wptx1:WaypointExtension/>
  </extensions>
 </wpt>
 <wpt lat="54.79847145" lon="83.12322917">
  <time>2026-02-18T08:21:10.944Z</time>
  <name>Точка%;№1 где-то там</name>
  <desc>Барышевский сельсовет, Новосибирский район, Новосибирская область</desc>
  <type>0</type>
  <extensions>
   <ql:key>4e43195788c87789697b59860545f065</ql:key>
   <ql:flags>6</ql:flags>
   <ql:bubble width="300" xoff="-320" yoff="-150"/>
   <ql:history>
    <ql:event>
     <ql:icon>://icons/48x48/Start.png</ql:icon>
     <ql:time>2026-02-18T08:29:35.955Z</ql:time>
     <ql:comment>Initial version.</ql:comment>
    </ql:event>
    <ql:event>
     <ql:icon>://icons/48x48/EditText.png</ql:icon>
     <ql:time>2026-02-18T09:33:15.906Z</ql:time>
     <ql:comment>Changed name</ql:comment>
    </ql:event>
   </ql:history>
   <wptx1:WaypointExtension/>
  </extensions>
 </wpt>
 <wpt lat="54.80030463" lon="83.12028101">
  <time>2026-02-18T08:21:30.192Z</time>
  <name>Точка № 2</name>
  <desc>Барышевский сельсовет, Новосибирский район, Новосибирская область</desc>
  <type>0</type>
  <extensions>
   <ql:key>66a61290a255c96f1163db5f1e7bfb2d</ql:key>
   <ql:flags>6</ql:flags>
   <ql:bubble width="300" xoff="-320" yoff="-150"/>
   <ql:history>
    <ql:event>
     <ql:icon>://icons/48x48/Start.png</ql:icon>
     <ql:time>2026-02-18T08:29:35.956Z</ql:time>
     <ql:comment>Initial version.</ql:comment>
    </ql:event>
    <ql:event>
     <ql:icon>://icons/48x48/EditText.png</ql:icon>
     <ql:time>2026-02-18T09:32:54.394Z</ql:time>
     <ql:comment>Changed name</ql:comment>
    </ql:event>
   </ql:history>
   <wptx1:WaypointExtension/>
  </extensions>
 </wpt>
 <wpt lat="54.80030253" lon="83.11368598">
  <time>2026-02-18T08:22:22.383Z</time>
  <name>Точка номер 1</name>
  <desc>Барышевский сельсовет, Новосибирский район, Новосибирская область</desc>
  <type>0</type>
  <extensions>
   <ql:key>e7142909330ea26b0d64dc203dac5e00</ql:key>
   <ql:flags>6</ql:flags>
   <ql:bubble width="300" xoff="-320" yoff="-150"/>
   <ql:history>
    <ql:event>
     <ql:icon>://icons/48x48/Start.png</ql:icon>
     <ql:time>2026-02-18T08:29:35.956Z</ql:time>
     <ql:comment>Initial version.</ql:comment>
    </ql:event>
    <ql:event>
     <ql:icon>://icons/48x48/EditText.png</ql:icon>
     <ql:time>2026-02-18T09:32:34.995Z</ql:time>
     <ql:comment>Changed name</ql:comment>
    </ql:event>
   </ql:history>
   <wptx1:WaypointExtension/>
  </extensions>
 </wpt>
 <trk>
  <type>TrackStyle_2196F3C8</type>
  <extensions>
   <ql:key>acac3986e98b46dd615298d20489d407</ql:key>
   <ql:flags>0</ql:flags>
   <gpxx:TrackExtension>
    <gpxx:DisplayColor>Blue</gpxx:DisplayColor>
   </gpxx:TrackExtension>
  </extensions>
  <trkseg>
   <trkpt lat="54.79149348" lon="83.13057092">
    <ele>201</ele>
    <time>2026-02-18T08:20:23.295Z</time>
    <hdop>5</hdop>
    <vdop>21</vdop>
    <extensions>
     <ql:flags>16</ql:flags>
     <ql:activity>0</ql:activity>
     <gom:speed>10.089</gom:speed>
    </extensions>
   </trkpt>
   <trkpt lat="54.79163857" lon="83.13041183">
    <ele>201</ele>
    <time>2026-02-18T08:20:25.295Z</time>
    <hdop>4</hdop>
    <vdop>21</vdop>
    <extensions>
     <ql:flags>0</ql:flags>
     <ql:activity>0</ql:activity>
     <gom:speed>10.061</gom:speed>
    </extensions>
   </trkpt>
   <trkpt lat="54.79174887" lon="83.13031829">
    <ele>185</ele>
    <time>2026-02-18T08:20:26.641Z</time>
    <hdop>3</hdop>
    <vdop>11</vdop>
    <extensions>
     <ql:flags>0</ql:flags>
     <ql:activity>0</ql:activity>
     <gom:speed>10.682</gom:speed>
    </extensions>
   </trkpt>
   <trkpt lat="54.79184388" lon="83.13023572">
    <ele>176</ele>
    <time>2026-02-18T08:20:27.642Z</time>
    <hdop>2</hdop>
    <vdop>11</vdop>
    <extensions>
     <ql:flags>0</ql:flags>
     <ql:activity>0</ql:activity>
     <gom:speed>11.764</gom:speed>
    </extensions>
   </trkpt>
   <trkpt lat="54.79194568" lon="83.13013414">
    <ele>170</ele>
    <time>2026-02-18T08:20:28.641Z</time>
    <hdop>2</hdop>
    <vdop>11</vdop>
    <extensions>
     <ql:flags>0</ql:flags>
     <ql:activity>0</ql:activity>
     <gom:speed>12.689</gom:speed>
    </extensions>
   </trkpt>
   <trkpt lat="54.79204999" lon="83.13002852">
    <ele>167</ele>
    <time>2026-02-18T08:20:29.642Z</time>
    <hdop>2</hdop>
    <vdop>11</vdop>
    <extensions>
     <ql:flags>0</ql:flags>
     <ql:activity>0</ql:activity>
     <gom:speed>13.262</gom:speed>
    </extensions>
   </trkpt>
   <trkpt lat="54.79216357" lon="83.12992836">
    <ele>165</ele>
    <time>2026-02-18T08:20:30.642Z</time>
    <hdop>2</hdop>
    <vdop>11</vdop>
    <extensions>
     <ql:flags>0</ql:flags>
     <ql:activity>0</ql:activity>
     <gom:speed>13.965</gom:speed>
    </extensions>
   </trkpt>
   <trkpt lat="54.79229269" lon="83.12984722">
    <ele>164</ele>
    <time>2026-02-18T08:20:31.642Z</time>
    <hdop>2</hdop>
    <vdop>11</vdop>
    <extensions>
     <ql:flags>0</ql:flags>
     <ql:activity>0</ql:activity>
     <gom:speed>14.778</gom:speed>
    </extensions>
   </trkpt>
   <trkpt lat="54.79243208" lon="83.12978495">
    <ele>163</ele>
    <time>2026-02-18T08:20:32.641Z</time>
    <hdop>2</hdop>
    <vdop>11</vdop>
    <extensions>
     <ql:flags>0</ql:flags>
     <ql:activity>0</ql:activity>
     <gom:speed>15.422</gom:speed>
    </extensions>
   </trkpt>
   <trkpt lat="54.79257349" lon="83.12971135">
    <ele>163</ele>
    <time>2026-02-18T08:20:33.641Z</time>
    <hdop>2</hdop>
    <vdop>11</vdop>
    <extensions>
     <ql:flags>0</ql:flags>
     <ql:activity>0</ql:activity>
     <gom:speed>15.772</gom:speed>
    </extensions>
   </trkpt>
   <trkpt lat="54.79271719" lon="83.12963935">
    <ele>162</ele>
    <time>2026-02-18T08:20:34.641Z</time>
    <hdop>2</hdop>
    <vdop>11</vdop>
    <extensions>
     <ql:flags>0</ql:flags>
     <ql:activity>0</ql:activity>
     <gom:speed>15.97</gom:speed>
    </extensions>
   </trkpt>
   <trkpt lat="54.79285746" lon="83.12955863">
    <ele>162</ele>
    <time>2026-02-18T08:20:35.642Z</time>
    <hdop>2</hdop>
    <vdop>11</vdop>
    <extensions>
     <ql:flags>0</ql:flags>
     <ql:activity>0</ql:activity>
     <gom:speed>16.284</gom:speed>
    </extensions>
   </trkpt>
   <trkpt lat="54.79299049" lon="83.12947993">
    <ele>162</ele>
    <time>2026-02-18T08:20:36.641Z</time>
    <hdop>2</hdop>
    <vdop>11</vdop>
    <extensions>
     <ql:flags>0</ql:flags>
     <ql:activity>0</ql:activity>
     <gom:speed>16.316</gom:speed>
    </extensions>
   </trkpt>
   <trkpt lat="54.79313667" lon="83.12941413">
    <ele>162</ele>
    <time>2026-02-18T08:20:37.642Z</time>
    <hdop>2</hdop>
    <vdop>11</vdop>
    <extensions>
     <ql:flags>0</ql:flags>
     <ql:activity>0</ql:activity>
     <gom:speed>16.844</gom:speed>
    </extensions>
   </trkpt>
   <trkpt lat="54.79329286" lon="83.12935185">
    <ele>162</ele>
    <time>2026-02-18T08:20:38.642Z</time>
    <hdop>2</hdop>
    <vdop>11</vdop>
    <extensions>
     <ql:flags>0</ql:flags>
     <ql:activity>0</ql:activity>
     <gom:speed>17.046</gom:speed>
    </extensions>
   </trkpt>
   <trkpt lat="54.79344600" lon="83.12927365">
    <ele>162</ele>
    <time>2026-02-18T08:20:39.642Z</time>
    <hdop>2</hdop>
    <vdop>11</vdop>
    <extensions>
     <ql:flags>0</ql:flags>
     <ql:activity>0</ql:activity>
     <gom:speed>16.999</gom:speed>
    </extensions>
   </trkpt>
   <trkpt lat="54.79359679" lon="83.12920584">
    <ele>162</ele>
    <time>2026-02-18T08:20:40.642Z</time>
    <hdop>2</hdop>
    <vdop>11</vdop>
    <extensions>
     <ql:flags>0</ql:flags>
     <ql:activity>0</ql:activity>
     <gom:speed>16.828</gom:speed>
    </extensions>
   </trkpt>
   <trkpt lat="54.79374209" lon="83.12913652">
    <ele>162</ele>
    <time>2026-02-18T08:20:41.641Z</time>
    <hdop>2</hdop>
    <vdop>11</vdop>
    <extensions>
     <ql:flags>0</ql:flags>
     <ql:activity>0</ql:activity>
     <gom:speed>16.916</gom:speed>
    </extensions>
   </trkpt>
   <trkpt lat="54.79388609" lon="83.12907173">
    <ele>162</ele>
    <time>2026-02-18T08:20:42.641Z</time>
    <hdop>2</hdop>
    <vdop>12</vdop>
    <extensions>
     <ql:flags>0</ql:flags>
     <ql:activity>0</ql:activity>
     <gom:speed>17.065</gom:speed>
    </extensions>
   </trkpt>
   <trkpt lat="54.79402967" lon="83.12899059">
    <ele>162</ele>
    <time>2026-02-18T08:20:43.641Z</time>
    <hdop>2</hdop>
    <vdop>12</vdop>
    <extensions>
     <ql:flags>0</ql:flags>
     <ql:activity>0</ql:activity>
     <gom:speed>17.054</gom:speed>
    </extensions>
   </trkpt>
   <trkpt lat="54.79417426" lon="83.12891532">
    <ele>162</ele>
    <time>2026-02-18T08:20:44.642Z</time>
    <hdop>2</hdop>
    <vdop>12</vdop>
    <extensions>
     <ql:flags>0</ql:flags>
     <ql:activity>0</ql:activity>
     <gom:speed>17.042</gom:speed>
    </extensions>
   </trkpt>
   <trkpt lat="54.79431499" lon="83.12884525">
    <ele>162</ele>
    <time>2026-02-18T08:20:45.642Z</time>
    <hdop>2</hdop>
    <vdop>12</vdop>
    <extensions>
     <ql:flags>0</ql:flags>
     <ql:activity>0</ql:activity>
     <gom:speed>16.682</gom:speed>
    </extensions>
   </trkpt>
   <trkpt lat="54.79444986" lon="83.12877057">
    <ele>162</ele>
    <time>2026-02-18T08:20:46.642Z</time>
    <hdop>2</hdop>
    <vdop>12</vdop>
    <extensions>
     <ql:flags>0</ql:flags>
     <ql:activity>0</ql:activity>
     <gom:speed>16.524</gom:speed>
    </extensions>
   </trkpt>
   <trkpt lat="54.79458418" lon="83.12870586">
    <ele>162</ele>
    <time>2026-02-18T08:20:47.642Z</time>
    <hdop>2</hdop>
    <vdop>12</vdop>
    <extensions>
     <ql:flags>0</ql:flags>
     <ql:activity>0</ql:activity>
     <gom:speed>16.205</gom:speed>
    </extensions>
   </trkpt>
   <trkpt lat="54.79472076" lon="83.12864224">
    <ele>162</ele>
    <time>2026-02-18T08:20:48.641Z</time>
    <hdop>2</hdop>
    <vdop>12</vdop>
    <extensions>
     <ql:flags>0</ql:flags>
     <ql:activity>0</ql:activity>
     <gom:speed>16.014</gom:speed>
    </extensions>
   </trkpt>
   <trkpt lat="54.79485567" lon="83.12857200">
    <ele>162</ele>
    <time>2026-02-18T08:20:49.641Z</time>
    <hdop>2</hdop>
    <vdop>12</vdop>
    <extensions>
     <ql:flags>0</ql:flags>
     <ql:activity>0</ql:activity>
     <gom:speed>15.741</gom:speed>
    </extensions>
   </trkpt>
   <trkpt lat="54.79498647" lon="83.12850318">
    <ele>162</ele>
    <time>2026-02-18T08:20:50.642Z</time>
    <hdop>2</hdop>
    <vdop>12</vdop>
    <extensions>
     <ql:flags>0</ql:flags>
     <ql:activity>0</ql:activity>
     <gom:speed>15.552</gom:speed>
    </extensions>
   </trkpt>
   <trkpt lat="54.79512100" lon="83.12843630">
    <ele>162</ele>
    <time>2026-02-18T08:20:51.642Z</time>
    <hdop>2</hdop>
    <vdop>12</vdop>
    <extensions>
     <ql:flags>0</ql:flags>
     <ql:activity>0</ql:activity>
     <gom:speed>15.222</gom:speed>
    </extensions>
   </trkpt>
   <trkpt lat="54.79525377" lon="83.12838475">
    <ele>162</ele>
    <time>2026-02-18T08:20:52.642Z</time>
    <hdop>2</hdop>
    <vdop>12</vdop>
    <extensions>
     <ql:flags>0</ql:flags>
     <ql:activity>0</ql:activity>
     <gom:speed>14.794</gom:speed>
    </extensions>
   </trkpt>
   <trkpt lat="54.79538147" lon="83.12832960">
    <ele>162</ele>
    <time>2026-02-18T08:20:53.642Z</time>
    <hdop>2</hdop>
    <vdop>12</vdop>
    <extensions>
     <ql:flags>0</ql:flags>
     <ql:activity>0</ql:activity>
     <gom:speed>14.696</gom:speed>
    </extensions>
   </trkpt>
   <trkpt lat="54.79551147" lon="83.12827763">
    <ele>162</ele>
    <time>2026-02-18T08:20:54.641Z</time>
    <hdop>2</hdop>
    <vdop>12</vdop>
    <extensions>
     <ql:flags>0</ql:flags>
     <ql:activity>0</ql:activity>
     <gom:speed>14.429</gom:speed>
    </extensions>
   </trkpt>
   <trkpt lat="54.79562869" lon="83.12821703">
    <ele>162</ele>
    <time>2026-02-18T08:20:55.642Z</time>
    <hdop>2</hdop>
    <vdop>12</vdop>
    <extensions>
     <ql:flags>0</ql:flags>
     <ql:activity>0</ql:activity>
     <gom:speed>13.96</gom:speed>
    </extensions>
   </trkpt>
   <trkpt lat="54.79574197" lon="83.12815626">
    <ele>162</ele>
    <time>2026-02-18T08:20:56.642Z</time>
    <hdop>2</hdop>
    <vdop>12</vdop>
    <extensions>
     <ql:flags>0</ql:flags>
     <ql:activity>0</ql:activity>
     <gom:speed>13.692</gom:speed>
    </extensions>
   </trkpt>
   <trkpt lat="54.79586150" lon="83.12808677">
    <ele>162</ele>
    <time>2026-02-18T08:20:57.641Z</time>
    <hdop>2</hdop>
    <vdop>12</vdop>
    <extensions>
     <ql:flags>0</ql:flags>
     <ql:activity>0</ql:activity>
     <gom:speed>13.371</gom:speed>
    </extensions>
   </trkpt>
   <trkpt lat="54.79597277" lon="83.12800865">
    <ele>162</ele>
    <time>2026-02-18T08:20:58.642Z</time>
    <hdop>2</hdop>
    <vdop>12</vdop>
    <extensions>
     <ql:flags>0</ql:flags>
     <ql:activity>0</ql:activity>
     <gom:speed>13.134</gom:speed>
    </extensions>
   </trkpt>
   <trkpt lat="54.79607079" lon="83.12790899">
    <ele>162</ele>
    <time>2026-02-18T08:20:59.641Z</time>
    <hdop>2</hdop>
    <vdop>12</vdop>
    <extensions>
     <ql:flags>0</ql:flags>
     <ql:activity>0</ql:activity>
     <gom:speed>12.867</gom:speed>
    </extensions>
   </trkpt>
   <trkpt lat="54.79616199" lon="83.12778905">
    <ele>162</ele>
    <time>2026-02-18T08:21:00.642Z</time>
    <hdop>2</hdop>
    <vdop>12</vdop>
    <extensions>
     <ql:flags>0</ql:flags>
     <ql:activity>0</ql:activity>
     <gom:speed>12.607</gom:speed>
    </extensions>
   </trkpt>
   <trkpt lat="54.79623998" lon="83.12765066">
    <ele>162</ele>
    <time>2026-02-18T08:21:01.642Z</time>
    <hdop>2</hdop>
    <vdop>12</vdop>
    <extensions>
     <ql:flags>0</ql:flags>
     <ql:activity>0</ql:activity>
     <gom:speed>12.486</gom:speed>
    </extensions>
   </trkpt>
   <trkpt lat="54.79630067" lon="83.12747397">
    <ele>162</ele>
    <time>2026-02-18T08:21:02.641Z</time>
    <hdop>2</hdop>
    <vdop>12</vdop>
    <extensions>
     <ql:flags>0</ql:flags>
     <ql:activity>0</ql:activity>
     <gom:speed>12.563</gom:speed>
    </extensions>
   </trkpt>
   <trkpt lat="54.79635297" lon="83.12728454">
    <ele>162</ele>
    <time>2026-02-18T08:21:03.642Z</time>
    <hdop>2</hdop>
    <vdop>12</vdop>
    <extensions>
     <ql:flags>0</ql:flags>
     <ql:activity>0</ql:activity>
     <gom:speed>12.883</gom:speed>
    </extensions>
   </trkpt>
   <trkpt lat="54.79640619" lon="83.12708145">
    <ele>162</ele>
    <time>2026-02-18T08:21:04.641Z</time>
    <hdop>2</hdop>
    <vdop>12</vdop>
    <extensions>
     <ql:flags>0</ql:flags>
     <ql:activity>0</ql:activity>
     <gom:speed>13.487</gom:speed>
    </extensions>
   </trkpt>
   <trkpt lat="54.79645737" lon="83.12687374">
    <ele>162</ele>
    <time>2026-02-18T08:21:05.641Z</time>
    <hdop>2</hdop>
    <vdop>12</vdop>
    <extensions>
     <ql:flags>0</ql:flags>
     <ql:activity>0</ql:activity>
     <gom:speed>13.969</gom:speed>
    </extensions>
   </trkpt>
   <trkpt lat="54.79651369" lon="83.12666604">
    <ele>162</ele>
    <time>2026-02-18T08:21:06.641Z</time>
    <hdop>2</hdop>
    <vdop>12</vdop>
    <extensions>
     <ql:flags>0</ql:flags>
     <ql:activity>0</ql:activity>
     <gom:speed>14.283</gom:speed>
    </extensions>
   </trkpt>
   <trkpt lat="54.79656667" lon="83.12644677">
    <ele>162</ele>
    <time>2026-02-18T08:21:07.641Z</time>
    <hdop>2</hdop>
    <vdop>12</vdop>
    <extensions>
     <ql:flags>0</ql:flags>
     <ql:activity>0</ql:activity>
     <gom:speed>14.557</gom:speed>
    </extensions>
   </trkpt>
   <trkpt lat="54.79661998" lon="83.12622180">
    <ele>162</ele>
    <time>2026-02-18T08:21:08.642Z</time>
    <hdop>2</hdop>
    <vdop>12</vdop>
    <extensions>
     <ql:flags>0</ql:flags>
     <ql:activity>0</ql:activity>
     <gom:speed>14.962</gom:speed>
    </extensions>
   </trkpt>
   <trkpt lat="54.79667727" lon="83.12599876">
    <ele>162</ele>
    <time>2026-02-18T08:21:09.641Z</time>
    <hdop>2</hdop>
    <vdop>12</vdop>
    <extensions>
     <ql:flags>0</ql:flags>
     <ql:activity>0</ql:activity>
     <gom:speed>15.373</gom:speed>
    </extensions>
   </trkpt>
   <trkpt lat="54.79674306" lon="83.12577077">
    <ele>162</ele>
    <time>2026-02-18T08:21:10.641Z</time>
    <hdop>2</hdop>
    <vdop>12</vdop>
    <extensions>
     <ql:flags>0</ql:flags>
     <ql:activity>0</ql:activity>
     <gom:speed>15.6</gom:speed>
    </extensions>
   </trkpt>
   <trkpt lat="54.79680878" lon="83.12553348">
    <ele>162</ele>
    <time>2026-02-18T08:21:11.641Z</time>
    <hdop>2</hdop>
    <vdop>12</vdop>
    <extensions>
     <ql:flags>0</ql:flags>
     <ql:activity>0</ql:activity>
     <gom:speed>15.83</gom:speed>
    </extensions>
   </trkpt>
   <trkpt lat="54.79687730" lon="83.12530649">
    <ele>162</ele>
    <time>2026-02-18T08:21:12.641Z</time>
    <hdop>2</hdop>
    <vdop>12</vdop>
    <extensions>
     <ql:flags>0</ql:flags>
     <ql:activity>0</ql:activity>
     <gom:speed>15.887</gom:speed>
    </extensions>
   </trkpt>
   <trkpt lat="54.79695777" lon="83.12509996">
    <ele>162</ele>
    <time>2026-02-18T08:21:13.641Z</time>
    <hdop>2</hdop>
    <vdop>12</vdop>
    <extensions>
     <ql:flags>0</ql:flags>
     <ql:activity>0</ql:activity>
     <gom:speed>15.898</gom:speed>
    </extensions>
   </trkpt>
   <trkpt lat="54.79703878" lon="83.12489645">
    <ele>162</ele>
    <time>2026-02-18T08:21:14.641Z</time>
    <hdop>2</hdop>
    <vdop>12</vdop>
    <extensions>
     <ql:flags>0</ql:flags>
     <ql:activity>0</ql:activity>
     <gom:speed>15.545</gom:speed>
    </extensions>
   </trkpt>
   <trkpt lat="54.79711778" lon="83.12469889">
    <ele>162</ele>
    <time>2026-02-18T08:21:15.641Z</time>
    <hdop>2</hdop>
    <vdop>12</vdop>
    <extensions>
     <ql:flags>0</ql:flags>
     <ql:activity>0</ql:activity>
     <gom:speed>15.454</gom:speed>
    </extensions>
   </trkpt>
   <trkpt lat="54.79719807" lon="83.12450778">
    <ele>162</ele>
    <time>2026-02-18T08:21:16.641Z</time>
    <hdop>2</hdop>
    <vdop>12</vdop>
    <extensions>
     <ql:flags>0</ql:flags>
     <ql:activity>0</ql:activity>
     <gom:speed>15.456</gom:speed>
    </extensions>
   </trkpt>
   <trkpt lat="54.79728889" lon="83.12432464">
    <ele>162</ele>
    <time>2026-02-18T08:21:17.642Z</time>
    <hdop>2</hdop>
    <vdop>12</vdop>
    <extensions>
     <ql:flags>0</ql:flags>
     <ql:activity>0</ql:activity>
     <gom:speed>15.654</gom:speed>
    </extensions>
   </trkpt>
   <trkpt lat="54.79739597" lon="83.12415432">
    <ele>162</ele>
    <time>2026-02-18T08:21:18.642Z</time>
    <hdop>2</hdop>
    <vdop>12</vdop>
    <extensions>
     <ql:flags>0</ql:flags>
     <ql:activity>0</ql:activity>
     <gom:speed>15.937</gom:speed>
    </extensions>
   </trkpt>
   <trkpt lat="54.79751449" lon="83.12399766">
    <ele>162</ele>
    <time>2026-02-18T08:21:19.642Z</time>
    <hdop>2</hdop>
    <vdop>12</vdop>
    <extensions>
     <ql:flags>0</ql:flags>
     <ql:activity>0</ql:activity>
     <gom:speed>15.933</gom:speed>
    </extensions>
   </trkpt>
   <trkpt lat="54.79763716" lon="83.12384377">
    <ele>162</ele>
    <time>2026-02-18T08:21:20.642Z</time>
    <hdop>2</hdop>
    <vdop>12</vdop>
    <extensions>
     <ql:flags>0</ql:flags>
     <ql:activity>0</ql:activity>
     <gom:speed>16.215</gom:speed>
    </extensions>
   </trkpt>
   <trkpt lat="54.79776339" lon="83.12368736">
    <ele>162</ele>
    <time>2026-02-18T08:21:21.641Z</time>
    <hdop>2</hdop>
    <vdop>12</vdop>
    <extensions>
     <ql:flags>0</ql:flags>
     <ql:activity>0</ql:activity>
     <gom:speed>16.897</gom:speed>
    </extensions>
   </trkpt>
   <trkpt lat="54.79789117" lon="83.12352735">
    <ele>162</ele>
    <time>2026-02-18T08:21:22.641Z</time>
    <hdop>2</hdop>
    <vdop>12</vdop>
    <extensions>
     <ql:flags>0</ql:flags>
     <ql:activity>0</ql:activity>
     <gom:speed>17.351</gom:speed>
    </extensions>
   </trkpt>
   <trkpt lat="54.79802277" lon="83.12334999">
    <ele>162</ele>
    <time>2026-02-18T08:21:23.642Z</time>
    <hdop>2</hdop>
    <vdop>12</vdop>
    <extensions>
     <ql:flags>0</ql:flags>
     <ql:activity>0</ql:activity>
     <gom:speed>17.934</gom:speed>
    </extensions>
   </trkpt>
   <trkpt lat="54.79815617" lon="83.12317187">
    <ele>162</ele>
    <time>2026-02-18T08:21:24.641Z</time>
    <hdop>2</hdop>
    <vdop>12</vdop>
    <extensions>
     <ql:flags>0</ql:flags>
     <ql:activity>0</ql:activity>
     <gom:speed>18.399</gom:speed>
    </extensions>
   </trkpt>
   <trkpt lat="54.79829258" lon="83.12300399">
    <ele>162</ele>
    <time>2026-02-18T08:21:25.642Z</time>
    <hdop>2</hdop>
    <vdop>12</vdop>
    <extensions>
     <ql:flags>0</ql:flags>
     <ql:activity>0</ql:activity>
     <gom:speed>18.236</gom:speed>
    </extensions>
   </trkpt>
   <trkpt lat="54.79843009" lon="83.12285412">
    <ele>162</ele>
    <time>2026-02-18T08:21:26.641Z</time>
    <hdop>2</hdop>
    <vdop>12</vdop>
    <extensions>
     <ql:flags>0</ql:flags>
     <ql:activity>0</ql:activity>
     <gom:speed>18.429</gom:speed>
    </extensions>
   </trkpt>
   <trkpt lat="54.79856500" lon="83.12269696">
    <ele>162</ele>
    <time>2026-02-18T08:21:27.641Z</time>
    <hdop>2</hdop>
    <vdop>12</vdop>
    <extensions>
     <ql:flags>0</ql:flags>
     <ql:activity>0</ql:activity>
     <gom:speed>18.556</gom:speed>
    </extensions>
   </trkpt>
   <trkpt lat="54.79869638" lon="83.12253326">
    <ele>162</ele>
    <time>2026-02-18T08:21:28.642Z</time>
    <hdop>2</hdop>
    <vdop>12</vdop>
    <extensions>
     <ql:flags>0</ql:flags>
     <ql:activity>0</ql:activity>
     <gom:speed>18.405</gom:speed>
    </extensions>
   </trkpt>
   <trkpt lat="54.79882898" lon="83.12237182">
    <ele>162</ele>
    <time>2026-02-18T08:21:29.642Z</time>
    <hdop>2</hdop>
    <vdop>12</vdop>
    <extensions>
     <ql:flags>0</ql:flags>
     <ql:activity>0</ql:activity>
     <gom:speed>18.191</gom:speed>
    </extensions>
   </trkpt>
   <trkpt lat="54.79896037" lon="83.12221366">
    <ele>162</ele>
    <time>2026-02-18T08:21:30.642Z</time>
    <hdop>2</hdop>
    <vdop>12</vdop>
    <extensions>
     <ql:flags>0</ql:flags>
     <ql:activity>0</ql:activity>
     <gom:speed>17.859</gom:speed>
    </extensions>
   </trkpt>
   <trkpt lat="54.79908757" lon="83.12205960">
    <ele>162</ele>
    <time>2026-02-18T08:21:31.641Z</time>
    <hdop>2</hdop>
    <vdop>12</vdop>
    <extensions>
     <ql:flags>0</ql:flags>
     <ql:activity>0</ql:activity>
     <gom:speed>17.541</gom:speed>
    </extensions>
   </trkpt>
   <trkpt lat="54.79920856" lon="83.12188995">
    <ele>162</ele>
    <time>2026-02-18T08:21:32.641Z</time>
    <hdop>2</hdop>
    <vdop>12</vdop>
    <extensions>
     <ql:flags>0</ql:flags>
     <ql:activity>0</ql:activity>
     <gom:speed>17.319</gom:speed>
    </extensions>
   </trkpt>
   <trkpt lat="54.79932448" lon="83.12171912">
    <ele>162</ele>
    <time>2026-02-18T08:21:33.641Z</time>
    <hdop>2</hdop>
    <vdop>12</vdop>
    <extensions>
     <ql:flags>0</ql:flags>
     <ql:activity>0</ql:activity>
     <gom:speed>17.241</gom:speed>
    </extensions>
   </trkpt>
   <trkpt lat="54.79943659" lon="83.12154788">
    <ele>162</ele>
    <time>2026-02-18T08:21:34.642Z</time>
    <hdop>2</hdop>
    <vdop>12</vdop>
    <extensions>
     <ql:flags>0</ql:flags>
     <ql:activity>0</ql:activity>
     <gom:speed>16.903</gom:speed>
    </extensions>
   </trkpt>
   <trkpt lat="54.79955117" lon="83.12138049">
    <ele>162</ele>
    <time>2026-02-18T08:21:35.642Z</time>
    <hdop>2</hdop>
    <vdop>12</vdop>
    <extensions>
     <ql:flags>0</ql:flags>
     <ql:activity>0</ql:activity>
     <gom:speed>16.586</gom:speed>
    </extensions>
   </trkpt>
   <trkpt lat="54.79966550" lon="83.12122115">
    <ele>162</ele>
    <time>2026-02-18T08:21:36.641Z</time>
    <hdop>2</hdop>
    <vdop>12</vdop>
    <extensions>
     <ql:flags>0</ql:flags>
     <ql:activity>0</ql:activity>
     <gom:speed>16.372</gom:speed>
    </extensions>
   </trkpt>
   <trkpt lat="54.79978138" lon="83.12107246">
    <ele>162</ele>
    <time>2026-02-18T08:21:37.641Z</time>
    <hdop>2</hdop>
    <vdop>12</vdop>
    <extensions>
     <ql:flags>0</ql:flags>
     <ql:activity>0</ql:activity>
     <gom:speed>16.334</gom:speed>
    </extensions>
   </trkpt>
   <trkpt lat="54.79989998" lon="83.12092142">
    <ele>162</ele>
    <time>2026-02-18T08:21:38.641Z</time>
    <hdop>2</hdop>
    <vdop>12</vdop>
    <extensions>
     <ql:flags>0</ql:flags>
     <ql:activity>0</ql:activity>
     <gom:speed>16.318</gom:speed>
    </extensions>
   </trkpt>
   <trkpt lat="54.80001599" lon="83.12076526">
    <ele>162</ele>
    <time>2026-02-18T08:21:39.641Z</time>
    <hdop>2</hdop>
    <vdop>12</vdop>
    <extensions>
     <ql:flags>0</ql:flags>
     <ql:activity>0</ql:activity>
     <gom:speed>16.264</gom:speed>
    </extensions>
   </trkpt>
   <trkpt lat="54.80013216" lon="83.12059503">
    <ele>162</ele>
    <time>2026-02-18T08:21:40.641Z</time>
    <hdop>2</hdop>
    <vdop>12</vdop>
    <extensions>
     <ql:flags>0</ql:flags>
     <ql:activity>0</ql:activity>
     <gom:speed>16.302</gom:speed>
    </extensions>
   </trkpt>
   <trkpt lat="54.80024477" lon="83.12041934">
    <ele>162</ele>
    <time>2026-02-18T08:21:41.642Z</time>
    <hdop>2</hdop>
    <vdop>12</vdop>
    <extensions>
     <ql:flags>0</ql:flags>
     <ql:activity>0</ql:activity>
     <gom:speed>16.297</gom:speed>
    </extensions>
   </trkpt>
   <trkpt lat="54.80035239" lon="83.12023603">
    <ele>162</ele>
    <time>2026-02-18T08:21:42.642Z</time>
    <hdop>2</hdop>
    <vdop>12</vdop>
    <extensions>
     <ql:flags>0</ql:flags>
     <ql:activity>0</ql:activity>
     <gom:speed>16.161</gom:speed>
    </extensions>
   </trkpt>
   <trkpt lat="54.80045457" lon="83.12005364">
    <ele>162</ele>
    <time>2026-02-18T08:21:43.642Z</time>
    <hdop>2</hdop>
    <vdop>12</vdop>
    <extensions>
     <ql:flags>0</ql:flags>
     <ql:activity>0</ql:activity>
     <gom:speed>16.118</gom:speed>
    </extensions>
   </trkpt>
   <trkpt lat="54.80055880" lon="83.11987326">
    <ele>162</ele>
    <time>2026-02-18T08:21:44.642Z</time>
    <hdop>2</hdop>
    <vdop>12</vdop>
    <extensions>
     <ql:flags>0</ql:flags>
     <ql:activity>0</ql:activity>
     <gom:speed>16.144</gom:speed>
    </extensions>
   </trkpt>
   <trkpt lat="54.80065037" lon="83.11967712">
    <ele>162</ele>
    <time>2026-02-18T08:21:45.641Z</time>
    <hdop>2</hdop>
    <vdop>12</vdop>
    <extensions>
     <ql:flags>0</ql:flags>
     <ql:activity>0</ql:activity>
     <gom:speed>15.822</gom:speed>
    </extensions>
   </trkpt>
   <trkpt lat="54.80072690" lon="83.11947168">
    <ele>162</ele>
    <time>2026-02-18T08:21:46.641Z</time>
    <hdop>2</hdop>
    <vdop>12</vdop>
    <extensions>
     <ql:flags>0</ql:flags>
     <ql:activity>0</ql:activity>
     <gom:speed>15.656</gom:speed>
    </extensions>
   </trkpt>
   <trkpt lat="54.80078750" lon="83.11925334">
    <ele>162</ele>
    <time>2026-02-18T08:21:47.642Z</time>
    <hdop>2</hdop>
    <vdop>12</vdop>
    <extensions>
     <ql:flags>0</ql:flags>
     <ql:activity>0</ql:activity>
     <gom:speed>15.479</gom:speed>
    </extensions>
   </trkpt>
   <trkpt lat="54.80083360" lon="83.11901948">
    <ele>162</ele>
    <time>2026-02-18T08:21:48.642Z</time>
    <hdop>2</hdop>
    <vdop>12</vdop>
    <extensions>
     <ql:flags>0</ql:flags>
     <ql:activity>0</ql:activity>
     <gom:speed>15.403</gom:speed>
    </extensions>
   </trkpt>
   <trkpt lat="54.80087568" lon="83.11878127">
    <ele>162</ele>
    <time>2026-02-18T08:21:49.642Z</time>
    <hdop>2</hdop>
    <vdop>12</vdop>
    <extensions>
     <ql:flags>0</ql:flags>
     <ql:activity>0</ql:activity>
     <gom:speed>15.398</gom:speed>
    </extensions>
   </trkpt>
   <trkpt lat="54.80090577" lon="83.11854012">
    <ele>162</ele>
    <time>2026-02-18T08:21:50.642Z</time>
    <hdop>2</hdop>
    <vdop>12</vdop>
    <extensions>
     <ql:flags>0</ql:flags>
     <ql:activity>0</ql:activity>
     <gom:speed>15.341</gom:speed>
    </extensions>
   </trkpt>
   <trkpt lat="54.80091687" lon="83.11829478">
    <ele>162</ele>
    <time>2026-02-18T08:21:51.642Z</time>
    <hdop>2</hdop>
    <vdop>12</vdop>
    <extensions>
     <ql:flags>0</ql:flags>
     <ql:activity>0</ql:activity>
     <gom:speed>15.446</gom:speed>
    </extensions>
   </trkpt>
   <trkpt lat="54.80091599" lon="83.11805305">
    <ele>172</ele>
    <time>2026-02-18T08:21:52.641Z</time>
    <hdop>2</hdop>
    <vdop>14</vdop>
    <extensions>
     <ql:flags>0</ql:flags>
     <ql:activity>0</ql:activity>
     <gom:speed>15.606</gom:speed>
    </extensions>
   </trkpt>
   <trkpt lat="54.80090338" lon="83.11781274">
    <ele>178</ele>
    <time>2026-02-18T08:21:53.641Z</time>
    <hdop>2</hdop>
    <vdop>14</vdop>
    <extensions>
     <ql:flags>0</ql:flags>
     <ql:activity>0</ql:activity>
     <gom:speed>15.836</gom:speed>
    </extensions>
   </trkpt>
   <trkpt lat="54.80087740" lon="83.11756589">
    <ele>181</ele>
    <time>2026-02-18T08:21:54.642Z</time>
    <hdop>2</hdop>
    <vdop>14</vdop>
    <extensions>
     <ql:flags>0</ql:flags>
     <ql:activity>0</ql:activity>
     <gom:speed>16.133</gom:speed>
    </extensions>
   </trkpt>
   <trkpt lat="54.80083896" lon="83.11730102">
    <ele>183</ele>
    <time>2026-02-18T08:21:55.641Z</time>
    <hdop>2</hdop>
    <vdop>13</vdop>
    <extensions>
     <ql:flags>0</ql:flags>
     <ql:activity>0</ql:activity>
     <gom:speed>16.562</gom:speed>
    </extensions>
   </trkpt>
   <trkpt lat="54.80079848" lon="83.11702048">
    <ele>185</ele>
    <time>2026-02-18T08:21:56.642Z</time>
    <hdop>2</hdop>
    <vdop>14</vdop>
    <extensions>
     <ql:flags>0</ql:flags>
     <ql:activity>0</ql:activity>
     <gom:speed>16.849</gom:speed>
    </extensions>
   </trkpt>
   <trkpt lat="54.80076198" lon="83.11674505">
    <ele>186</ele>
    <time>2026-02-18T08:21:57.642Z</time>
    <hdop>2</hdop>
    <vdop>13</vdop>
    <extensions>
     <ql:flags>0</ql:flags>
     <ql:activity>0</ql:activity>
     <gom:speed>17.131</gom:speed>
    </extensions>
   </trkpt>
   <trkpt lat="54.80072606" lon="83.11647205">
    <ele>186</ele>
    <time>2026-02-18T08:21:58.642Z</time>
    <hdop>2</hdop>
    <vdop>14</vdop>
    <extensions>
     <ql:flags>0</ql:flags>
     <ql:activity>0</ql:activity>
     <gom:speed>17.162</gom:speed>
    </extensions>
   </trkpt>
   <trkpt lat="54.80069119" lon="83.11619796">
    <ele>187</ele>
    <time>2026-02-18T08:21:59.641Z</time>
    <hdop>2</hdop>
    <vdop>14</vdop>
    <extensions>
     <ql:flags>0</ql:flags>
     <ql:activity>0</ql:activity>
     <gom:speed>17.58</gom:speed>
    </extensions>
   </trkpt>
   <trkpt lat="54.80065800" lon="83.11591809">
    <ele>188</ele>
    <time>2026-02-18T08:22:00.641Z</time>
    <hdop>2</hdop>
    <vdop>13</vdop>
    <extensions>
     <ql:flags>0</ql:flags>
     <ql:activity>0</ql:activity>
     <gom:speed>17.987</gom:speed>
    </extensions>
   </trkpt>
   <trkpt lat="54.80062598" lon="83.11563219">
    <ele>188</ele>
    <time>2026-02-18T08:22:01.642Z</time>
    <hdop>2</hdop>
    <vdop>13</vdop>
    <extensions>
     <ql:flags>0</ql:flags>
     <ql:activity>0</ql:activity>
     <gom:speed>18.553</gom:speed>
    </extensions>
   </trkpt>
   <trkpt lat="54.80059329" lon="83.11532650">
    <ele>188</ele>
    <time>2026-02-18T08:22:02.642Z</time>
    <hdop>2</hdop>
    <vdop>13</vdop>
    <extensions>
     <ql:flags>0</ql:flags>
     <ql:activity>0</ql:activity>
     <gom:speed>19.02</gom:speed>
    </extensions>
   </trkpt>
   <trkpt lat="54.80055918" lon="83.11501645">
    <ele>187</ele>
    <time>2026-02-18T08:22:03.641Z</time>
    <hdop>2</hdop>
    <vdop>13</vdop>
    <extensions>
     <ql:flags>0</ql:flags>
     <ql:activity>0</ql:activity>
     <gom:speed>19.608</gom:speed>
    </extensions>
   </trkpt>
   <trkpt lat="54.80052980" lon="83.11470355">
    <ele>186</ele>
    <time>2026-02-18T08:22:04.642Z</time>
    <hdop>2</hdop>
    <vdop>13</vdop>
    <extensions>
     <ql:flags>0</ql:flags>
     <ql:activity>0</ql:activity>
     <gom:speed>20.21</gom:speed>
    </extensions>
   </trkpt>
   <trkpt lat="54.80050888" lon="83.11436015">
    <ele>186</ele>
    <time>2026-02-18T08:22:05.641Z</time>
    <hdop>2</hdop>
    <vdop>13</vdop>
    <extensions>
     <ql:flags>0</ql:flags>
     <ql:activity>0</ql:activity>
     <gom:speed>20.578</gom:speed>
    </extensions>
   </trkpt>
   <trkpt lat="54.80049317" lon="83.11401808">
    <ele>186</ele>
    <time>2026-02-18T08:22:06.641Z</time>
    <hdop>2</hdop>
    <vdop>13</vdop>
    <extensions>
     <ql:flags>0</ql:flags>
     <ql:activity>0</ql:activity>
     <gom:speed>21.042</gom:speed>
    </extensions>
   </trkpt>
   <trkpt lat="54.80048638" lon="83.11368255">
    <ele>186</ele>
    <time>2026-02-18T08:22:07.642Z</time>
    <hdop>2</hdop>
    <vdop>14</vdop>
    <extensions>
     <ql:flags>0</ql:flags>
     <ql:activity>0</ql:activity>
     <gom:speed>21.512</gom:speed>
    </extensions>
   </trkpt>
   <trkpt lat="54.80047008" lon="83.11333839">
    <ele>185</ele>
    <time>2026-02-18T08:22:08.641Z</time>
    <hdop>2</hdop>
    <vdop>14</vdop>
    <extensions>
     <ql:flags>0</ql:flags>
     <ql:activity>0</ql:activity>
     <gom:speed>22.033</gom:speed>
    </extensions>
   </trkpt>
   <trkpt lat="54.80043827" lon="83.11299247">
    <ele>184</ele>
    <time>2026-02-18T08:22:09.642Z</time>
    <hdop>2</hdop>
    <vdop>14</vdop>
    <extensions>
     <ql:flags>0</ql:flags>
     <ql:activity>0</ql:activity>
     <gom:speed>22.371</gom:speed>
    </extensions>
   </trkpt>
   <trkpt lat="54.80038286" lon="83.11264689">
    <ele>184</ele>
    <time>2026-02-18T08:22:10.641Z</time>
    <hdop>2</hdop>
    <vdop>16</vdop>
    <extensions>
     <ql:flags>0</ql:flags>
     <ql:activity>0</ql:activity>
     <gom:speed>22.636</gom:speed>
    </extensions>
   </trkpt>
   <trkpt lat="54.80032109" lon="83.11229074">
    <ele>184</ele>
    <time>2026-02-18T08:22:11.641Z</time>
    <hdop>2</hdop>
    <vdop>16</vdop>
    <extensions>
     <ql:flags>0</ql:flags>
     <ql:activity>0</ql:activity>
     <gom:speed>22.754</gom:speed>
    </extensions>
   </trkpt>
   <trkpt lat="54.80026698" lon="83.11194264">
    <ele>183</ele>
    <time>2026-02-18T08:22:12.641Z</time>
    <hdop>2</hdop>
    <vdop>16</vdop>
    <extensions>
     <ql:flags>0</ql:flags>
     <ql:activity>0</ql:activity>
     <gom:speed>22.427</gom:speed>
    </extensions>
   </trkpt>
   <trkpt lat="54.80021707" lon="83.11161273">
    <ele>182</ele>
    <time>2026-02-18T08:22:13.642Z</time>
    <hdop>2</hdop>
    <vdop>16</vdop>
    <extensions>
     <ql:flags>0</ql:flags>
     <ql:activity>0</ql:activity>
     <gom:speed>22.429</gom:speed>
    </extensions>
   </trkpt>
   <trkpt lat="54.80018316" lon="83.11127368">
    <ele>181</ele>
    <time>2026-02-18T08:22:14.642Z</time>
    <hdop>2</hdop>
    <vdop>15</vdop>
    <extensions>
     <ql:flags>0</ql:flags>
     <ql:activity>0</ql:activity>
     <gom:speed>22.42</gom:speed>
    </extensions>
   </trkpt>
   <trkpt lat="54.80016498" lon="83.11092726">
    <ele>181</ele>
    <time>2026-02-18T08:22:15.642Z</time>
    <hdop>2</hdop>
    <vdop>15</vdop>
    <extensions>
     <ql:flags>0</ql:flags>
     <ql:activity>0</ql:activity>
     <gom:speed>22.286</gom:speed>
    </extensions>
   </trkpt>
   <trkpt lat="54.80017340" lon="83.11057848">
    <ele>180</ele>
    <time>2026-02-18T08:22:16.642Z</time>
    <hdop>2</hdop>
    <vdop>15</vdop>
    <extensions>
     <ql:flags>0</ql:flags>
     <ql:activity>0</ql:activity>
     <gom:speed>22.398</gom:speed>
    </extensions>
   </trkpt>
   <trkpt lat="54.80020370" lon="83.11023349">
    <ele>181</ele>
    <time>2026-02-18T08:22:17.642Z</time>
    <hdop>2</hdop>
    <vdop>15</vdop>
    <extensions>
     <ql:flags>0</ql:flags>
     <ql:activity>0</ql:activity>
     <gom:speed>22.047</gom:speed>
    </extensions>
   </trkpt>
   <trkpt lat="54.80025127" lon="83.10991958">
    <ele>181</ele>
    <time>2026-02-18T08:22:18.641Z</time>
    <hdop>2</hdop>
    <vdop>14</vdop>
    <extensions>
     <ql:flags>0</ql:flags>
     <ql:activity>0</ql:activity>
     <gom:speed>20.899</gom:speed>
    </extensions>
   </trkpt>
   <trkpt lat="54.80029427" lon="83.10966628">
    <ele>181</ele>
    <time>2026-02-18T08:22:19.642Z</time>
    <hdop>2</hdop>
    <vdop>14</vdop>
    <extensions>
     <ql:flags>0</ql:flags>
     <ql:activity>0</ql:activity>
     <gom:speed>18.55</gom:speed>
    </extensions>
   </trkpt>
   <trkpt lat="54.80034079" lon="83.10944668">
    <ele>182</ele>
    <time>2026-02-18T08:22:20.641Z</time>
    <hdop>2</hdop>
    <vdop>13</vdop>
    <extensions>
     <ql:flags>0</ql:flags>
     <ql:activity>0</ql:activity>
     <gom:speed>16.499</gom:speed>
    </extensions>
   </trkpt>
   <trkpt lat="54.80038508" lon="83.10925037">
    <ele>181</ele>
    <time>2026-02-18T08:22:21.642Z</time>
    <hdop>2</hdop>
    <vdop>13</vdop>
    <extensions>
     <ql:flags>0</ql:flags>
     <ql:activity>0</ql:activity>
     <gom:speed>15.125</gom:speed>
    </extensions>
   </trkpt>
   <trkpt lat="54.80041979" lon="83.10905968">
    <ele>181</ele>
    <time>2026-02-18T08:22:22.641Z</time>
    <hdop>2</hdop>
    <vdop>14</vdop>
    <extensions>
     <ql:flags>0</ql:flags>
     <ql:activity>0</ql:activity>
     <gom:speed>14.133</gom:speed>
    </extensions>
   </trkpt>
   <trkpt lat="54.80045390" lon="83.10886279">
    <ele>181</ele>
    <time>2026-02-18T08:22:23.642Z</time>
    <hdop>2</hdop>
    <vdop>14</vdop>
    <extensions>
     <ql:flags>0</ql:flags>
     <ql:activity>0</ql:activity>
     <gom:speed>13.448</gom:speed>
    </extensions>
   </trkpt>
   <trkpt lat="54.80048550" lon="83.10866406">
    <ele>180</ele>
    <time>2026-02-18T08:22:24.642Z</time>
    <hdop>2</hdop>
    <vdop>14</vdop>
    <extensions>
     <ql:flags>0</ql:flags>
     <ql:activity>0</ql:activity>
     <gom:speed>13.139</gom:speed>
    </extensions>
   </trkpt>
   <trkpt lat="54.80051287" lon="83.10847303">
    <ele>180</ele>
    <time>2026-02-18T08:22:25.642Z</time>
    <hdop>2</hdop>
    <vdop>13</vdop>
    <extensions>
     <ql:flags>0</ql:flags>
     <ql:activity>0</ql:activity>
     <gom:speed>13.158</gom:speed>
    </extensions>
   </trkpt>
   <trkpt lat="54.80053537" lon="83.10827505">
    <ele>180</ele>
    <time>2026-02-18T08:22:26.642Z</time>
    <hdop>2</hdop>
    <vdop>13</vdop>
    <extensions>
     <ql:flags>0</ql:flags>
     <ql:activity>0</ql:activity>
     <gom:speed>13.235</gom:speed>
    </extensions>
   </trkpt>
   <trkpt lat="54.80054958" lon="83.10805955">
    <ele>180</ele>
    <time>2026-02-18T08:22:27.642Z</time>
    <hdop>2</hdop>
    <vdop>13</vdop>
    <extensions>
     <ql:flags>0</ql:flags>
     <ql:activity>0</ql:activity>
     <gom:speed>13.256</gom:speed>
    </extensions>
   </trkpt>
   <trkpt lat="54.80056877" lon="83.10785747">
    <ele>179</ele>
    <time>2026-02-18T08:22:28.641Z</time>
    <hdop>2</hdop>
    <vdop>13</vdop>
    <extensions>
     <ql:flags>0</ql:flags>
     <ql:activity>0</ql:activity>
     <gom:speed>13.296</gom:speed>
    </extensions>
   </trkpt>
   <trkpt lat="54.80058847" lon="83.10765798">
    <ele>179</ele>
    <time>2026-02-18T08:22:29.641Z</time>
    <hdop>2</hdop>
    <vdop>13</vdop>
    <extensions>
     <ql:flags>0</ql:flags>
     <ql:activity>0</ql:activity>
     <gom:speed>13.325</gom:speed>
    </extensions>
   </trkpt>
   <trkpt lat="54.80060586" lon="83.10745463">
    <ele>179</ele>
    <time>2026-02-18T08:22:30.642Z</time>
    <hdop>2</hdop>
    <vdop>12</vdop>
    <extensions>
     <ql:flags>0</ql:flags>
     <ql:activity>0</ql:activity>
     <gom:speed>13.182</gom:speed>
    </extensions>
   </trkpt>
   <trkpt lat="54.80061986" lon="83.10725246">
    <ele>179</ele>
    <time>2026-02-18T08:22:31.642Z</time>
    <hdop>2</hdop>
    <vdop>12</vdop>
    <extensions>
     <ql:flags>16</ql:flags>
     <ql:activity>0</ql:activity>
     <gom:speed>13.286</gom:speed>
    </extensions>
   </trkpt>
  </trkseg>
 </trk>
 <extensions>
  <ql:key>3179bca7660bcc724a38d7edb8ecf788</ql:key>
  <ql:sortingRoadbook>0</ql:sortingRoadbook>
  <ql:sortingFolder>0</ql:sortingFolder>
  <ql:correlation>1</ql:correlation>
  <ql:invalidDataOk>0</ql:invalidDataOk>
 </extensions>
</gpx>
